[
    {
        "Altitude(m)": 712677.6906706849,
        "Argument of Periapsis(deg)": 0.0,
        "Eccentricity": 0.0,
        "Inclination(deg)": 45.0,
        "Latitude(deg)": -32.48006247543287,
        "Longitude(deg)": -119.25313285889797,
        "Mean Anomaly(deg)": 310.9091000000001,
        "RAAN(deg)": 20.0,
        "Satellite Name": "Constellation 1 107",
        "Satellite Number": 107,
        "Semi-Major Axis(m)": 7083131.272910544,
        "Time(s)": 0
    },
    {
        "Altitude(m)": 712664.422747622,
        "Argument of Periapsis(deg)": 5.994800624540561e-05,
        "Eccentricity": 0.0,
        "Inclination(deg)": 45.0,
        "Latitude(deg)": -32.44675642694148,
        "Longitude(deg)": -119.19727219734533,
        "Mean Anomaly(deg)": 310.96980114024996,
        "RAAN(deg)": 19.99994341083443,
        "Satellite Name": "Constellation 1 107",
        "Satellite Number": 107,
        "Semi-Major Axis(m)": 7083131.272910544,
        "Time(s)": 1
    },
    {
        "Altitude(m)": 712651.1473561933,
        "Argument of Periapsis(deg)": 0.00011989601249081122,
        "Eccentricity": 0.0,
        "Inclination(deg)": 45.0,
        "Latitude(deg)": -32.413421607273435,
        "Longitude(deg)": -119.14145550053252,
        "Mean Anomaly(deg)": 311.03050228049983,
        "RAAN(deg)": 19.999886821668863,
        "Satellite Name": "Constellation 1 107",
        "Satellite Number": 107,
        "Semi-Major Axis(m)": 7083131.272910544,
        "Time(s)": 2
    },
    {
        "Altitude(m)": 712637.8645435186,
        "Argument of Periapsis(deg)": 0.00017984401873621686,
        "Eccentricity": 0.0,
        "Inclination(deg)": 45.0,
        "Latitude(deg)": -32.38005807334389,
        "Longitude(deg)": -119.08568271732535,
        "Mean Anomaly(deg)": 311.09120342074976,
        "RAAN(deg)": 19.999830232503292,
        "Satellite Name": "Constellation 1 107",
        "Satellite Number": 107,
        "Semi-Major Axis(m)": 7083131.272910544,
        "Time(s)": 3
    },
    {
        "Altitude(m)": 712624.5743567328,
        "Argument of Periapsis(deg)": 0.00023979202498162244,
        "Eccentricity": 0.0,
        "Inclination(deg)": 45.0,
        "Latitude(deg)": -32.346665881996714,
        "Longitude(deg)": -119.02995379647597,
        "Mean Anomaly(deg)": 311.1519045609997,
        "RAAN(deg)": 19.999773643337722,
        "Satellite Name": "Constellation 1 107",
        "Satellite Number": 107,
        "Semi-Major Axis(m)": 7083131.272910544,
        "Time(s)": 4
    },
    {
        "Altitude(m)": 712611.2768429965,
        "Argument of Periapsis(deg)": 0.00029974003122702807,
        "Eccentricity": 0.0,
        "Inclination(deg)": 45.0,
        "Latitude(deg)": -32.313245090004486,
        "Longitude(deg)": -118.97426868662383,
        "Mean Anomaly(deg)": 311.2126057012495,
        "RAAN(deg)": 19.99971705417215,
        "Satellite Name": "Constellation 1 107",
        "Satellite Number": 107,
        "Semi-Major Axis(m)": 7083131.272910544,
        "Time(s)": 5
    },
    {
        "Altitude(m)": 712597.9720494929,
        "Argument of Periapsis(deg)": 0.00035968803747243373,
        "Eccentricity": 0.0,
        "Inclination(deg)": 45.0,
        "Latitude(deg)": -32.27979575406825,
        "Longitude(deg)": -118.91862733629635,
        "Mean Anomaly(deg)": 311.2733068414994,
        "RAAN(deg)": 19.99966046500658,
        "Satellite Name": "Constellation 1 107",
        "Satellite Number": 107,
        "Semi-Major Axis(m)": 7083131.272910544,
        "Time(s)": 6
    },
    {
        "Altitude(m)": 712584.6600234113,
        "Argument of Periapsis(deg)": 0.00041963604371783933,
        "Eccentricity": 0.0,
        "Inclination(deg)": 45.0,
        "Latitude(deg)": -32.24631793081745,
        "Longitude(deg)": -118.86302986200701,
        "Mean Anomaly(deg)": 311.3340079817493,
        "RAAN(deg)": 19.999603875841014,
        "Satellite Name": "Constellation 1 107",
        "Satellite Number": 107,
        "Semi-Major Axis(m)": 7083131.272910544,
        "Time(s)": 7
    },
    {
        "Altitude(m)": 712571.3408119676,
        "Argument of Periapsis(deg)": 0.0004795840499632449,
        "Eccentricity": 0.0,
        "Inclination(deg)": 45.0,
        "Latitude(deg)": -32.212811676810716,
        "Longitude(deg)": -118.807475875868,
        "Mean Anomaly(deg)": 311.39470912199926,
        "RAAN(deg)": 19.999547286675444,
        "Satellite Name": "Constellation 1 107",
        "Satellite Number": 107,
        "Semi-Major Axis(m)": 7083131.272910544,
        "Time(s)": 8
    },
    {
        "Altitude(m)": 712558.0144623945,
        "Argument of Periapsis(deg)": 0.0005395320562086505,
        "Eccentricity": 0.0,
        "Inclination(deg)": 45.0,
        "Latitude(deg)": -32.17927704853441,
        "Longitude(deg)": -118.75196549417355,
        "Mean Anomaly(deg)": 311.45541026224913,
        "RAAN(deg)": 19.999490697509874,
        "Satellite Name": "Constellation 1 107",
        "Satellite Number": 107,
        "Semi-Major Axis(m)": 7083131.272910544,
        "Time(s)": 9
    },
    {
        "Altitude(m)": 712544.6810219464,
        "Argument of Periapsis(deg)": 0.0005994800624540561,
        "Eccentricity": 0.0,
        "Inclination(deg)": 45.0,
        "Latitude(deg)": -32.14571410240358,
        "Longitude(deg)": -118.6964986650125,
        "Mean Anomaly(deg)": 311.516111402499,
        "RAAN(deg)": 19.999434108344303,
        "Satellite Name": "Constellation 1 107",
        "Satellite Number": 107,
        "Semi-Major Axis(m)": 7083131.272910544,
        "Time(s)": 10
    },
    {
        "Altitude(m)": 712531.3405378874,
        "Argument of Periapsis(deg)": 0.0006594280686994618,
        "Eccentricity": 0.0,
        "Inclination(deg)": 45.0,
        "Latitude(deg)": -32.112122894761654,
        "Longitude(deg)": -118.64107533636631,
        "Mean Anomaly(deg)": 311.57681254274894,
        "RAAN(deg)": 19.999377519178736,
        "Satellite Name": "Constellation 1 107",
        "Satellite Number": 107,
        "Semi-Major Axis(m)": 7083131.272910544,
        "Time(s)": 11
    },
    {
        "Altitude(m)": 712517.9930575088,
        "Argument of Periapsis(deg)": 0.0007193760749448675,
        "Eccentricity": 0.0,
        "Inclination(deg)": 45.0,
        "Latitude(deg)": -32.07850348188049,
        "Longitude(deg)": -118.58569545611,
        "Mean Anomaly(deg)": 311.6375136829989,
        "RAAN(deg)": 19.999320930013166,
        "Satellite Name": "Constellation 1 107",
        "Satellite Number": 107,
        "Semi-Major Axis(m)": 7083131.272910544,
        "Time(s)": 12
    },
    {
        "Altitude(m)": 712504.6386281077,
        "Argument of Periapsis(deg)": 0.000779324081190273,
        "Eccentricity": 0.0,
        "Inclination(deg)": 45.0,
        "Latitude(deg)": -32.0448559199603,
        "Longitude(deg)": -118.53035897201305,
        "Mean Anomaly(deg)": 311.69821482324875,
        "RAAN(deg)": 19.999264340847596,
        "Satellite Name": "Constellation 1 107",
        "Satellite Number": 107,
        "Semi-Major Axis(m)": 7083131.272910544,
        "Time(s)": 13
    },
    {
        "Altitude(m)": 712491.2772970066,
        "Argument of Periapsis(deg)": 0.0008392720874356787,
        "Eccentricity": 0.0,
        "Inclination(deg)": 45.0,
        "Latitude(deg)": -32.011180265129326,
        "Longitude(deg)": -118.47506583173973,
        "Mean Anomaly(deg)": 311.7589159634986,
        "RAAN(deg)": 19.99920775168203,
        "Satellite Name": "Constellation 1 107",
        "Satellite Number": 107,
        "Semi-Major Axis(m)": 7083131.272910544,
        "Time(s)": 14
    },
    {
        "Altitude(m)": 712477.909111548,
        "Argument of Periapsis(deg)": 0.0008992200936810842,
        "Eccentricity": 0.0,
        "Inclination(deg)": 45.0,
        "Latitude(deg)": -31.977476573444182,
        "Longitude(deg)": -118.41981615094817,
        "Mean Anomaly(deg)": 311.81961710374856,
        "RAAN(deg)": 19.999151162516455,
        "Satellite Name": "Constellation 1 107",
        "Satellite Number": 107,
        "Semi-Major Axis(m)": 7083131.272910544,
        "Time(s)": 15
    },
    {
        "Altitude(m)": 712464.5341190845,
        "Argument of Periapsis(deg)": 0.0009591680999264898,
        "Eccentricity": 0.0,
        "Inclination(deg)": 45.0,
        "Latitude(deg)": -31.94374490089012,
        "Longitude(deg)": -118.36460954090172,
        "Mean Anomaly(deg)": 311.88031824399843,
        "RAAN(deg)": 19.999094573350888,
        "Satellite Name": "Constellation 1 107",
        "Satellite Number": 107,
        "Semi-Major Axis(m)": 7083131.272910544,
        "Time(s)": 16
    },
    {
        "Altitude(m)": 712451.1523669866,
        "Argument of Periapsis(deg)": 0.0010191161061718953,
        "Eccentricity": 0.0,
        "Inclination(deg)": 45.0,
        "Latitude(deg)": -31.909985303380125,
        "Longitude(deg)": -118.30944611705323,
        "Mean Anomaly(deg)": 311.9410193842483,
        "RAAN(deg)": 19.99903798418532,
        "Satellite Name": "Constellation 1 107",
        "Satellite Number": 107,
        "Semi-Major Axis(m)": 7083131.272910544,
        "Time(s)": 17
    },
    {
        "Altitude(m)": 712437.7639026373,
        "Argument of Periapsis(deg)": 0.001079064112417301,
        "Eccentricity": 0.0,
        "Inclination(deg)": 45.0,
        "Latitude(deg)": -31.876197836755434,
        "Longitude(deg)": -118.25432582665705,
        "Mean Anomaly(deg)": 312.0017205244982,
        "RAAN(deg)": 19.998981395019747,
        "Satellite Name": "Constellation 1 107",
        "Satellite Number": 107,
        "Semi-Major Axis(m)": 7083131.272910544,
        "Time(s)": 18
    }
]